[{"OBJECT_NAME":"STARLINK-31484","OBJECT_ID":"2024-036H","EPOCH":"2026-03-09T08:17:51.671616","MEAN_MOTION":15.30188299,"ECCENTRICITY":6.44e-6,"INCLINATION":53.16,"RA_OF_ASC_NODE":79.5068,"ARG_OF_PERICENTER":214.6339,"MEAN_ANOMALY":145.4658,"EPHEMERIS_TYPE":0,"CLASSIFICATION_TYPE":"U","NORAD_CAT_ID":59005,"ELEMENT_SET_NO":999,"REV_AT_EPOCH":11527,"BSTAR":-3.5185123e-5,"MEAN_MOTION_DOT":-1.4e-5,"MEAN_MOTION_DDOT":0},{"OBJECT_NAME":"SCS-01 J","OBJECT_ID":"2025-100J","EPOCH":"2026-03-09T22:31:25.904064","MEAN_MOTION":15.31338011,"ECCENTRICITY":0.00063909,"INCLINATION":97.3693,"RA_OF_ASC_NODE":145.4824,"ARG_OF_PERICENTER":272.025,"MEAN_ANOMALY":88.026,"EPHEMERIS_TYPE":0,"CLASSIFICATION_TYPE":"U","NORAD_CAT_ID":63990,"ELEMENT_SET_NO":999,"REV_AT_EPOCH":4563,"BSTAR":0.0011832888,"MEAN_MOTION_DOT":0.00035886,"MEAN_MOTION_DDOT":0}]
